{
    "links": {
        "self": "http://www.neowsapp.com/rest/v1/neo/3838006?api_key=iIulBulltgU6a56xZRHN4H3l9WmuAYTsLGpBGhQ2"
    },
    "id": "3838006",
    "neo_reference_id": "3838006",
    "name": "(2019 AX14)",
    "designation": "2019 AX14",
    "nasa_jpl_url": "http://ssd.jpl.nasa.gov/sbdb.cgi?sstr=3838006",
    "absolute_magnitude_h": 26.681,
    "estimated_diameter": {
        "kilometers": {
            "estimated_diameter_min": 0.0122561757,
            "estimated_diameter_max": 0.0274056419
        },
        "meters": {
            "estimated_diameter_min": 12.2561756545,
            "estimated_diameter_max": 27.4056419077
        },
        "miles": {
            "estimated_diameter_min": 0.0076156321,
            "estimated_diameter_max": 0.0170290711
        },
        "feet": {
            "estimated_diameter_min": 40.2105513344,
            "estimated_diameter_max": 89.9135261964
        }
    },
    "is_potentially_hazardous_asteroid": false,
    "close_approach_data": [
        {
            "close_approach_date": "1995-09-04",
            "close_approach_date_full": "1995-Sep-04 16:21",
            "epoch_date_close_approach": 810231660000,
            "relative_velocity": {
                "kilometers_per_second": "28.0165098465",
                "kilometers_per_hour": "100859.4354473942",
                "miles_per_hour": "62670.1308756323"
            },
            "miss_distance": {
                "astronomical": "0.4663666054",
                "lunar": "181.4166095006",
                "kilometers": "69767450.806970498",
                "miles": "43351483.6964409524"
            },
            "orbiting_body": "Earth"
        },
        {
            "close_approach_date": "2019-01-23",
            "close_approach_date_full": "2019-Jan-23 17:18",
            "epoch_date_close_approach": 1548263880000,
            "relative_velocity": {
                "kilometers_per_second": "14.2813063506",
                "kilometers_per_hour": "51412.7028620182",
                "miles_per_hour": "31945.854175569"
            },
            "miss_distance": {
                "astronomical": "0.0132095075",
                "lunar": "5.1384984175",
                "kilometers": "1976114.185749025",
                "miles": "1227900.416525545"
            },
            "orbiting_body": "Earth"
        },
        {
            "close_approach_date": "2020-08-19",
            "close_approach_date_full": "2020-Aug-19 22:49",
            "epoch_date_close_approach": 1597877340000,
            "relative_velocity": {
                "kilometers_per_second": "18.4355874723",
                "kilometers_per_hour": "66368.1149001799",
                "miles_per_hour": "41238.5656167257"
            },
            "miss_distance": {
                "astronomical": "0.1524311707",
                "lunar": "59.2957254023",
                "kilometers": "22803378.458326409",
                "miles": "14169362.3319420842"
            },
            "orbiting_body": "Earth"
        },
        {
            "close_approach_date": "2171-01-16",
            "close_approach_date_full": "2171-Jan-16 09:38",
            "epoch_date_close_approach": 6344300280000,
            "relative_velocity": {
                "kilometers_per_second": "20.5026438774",
                "kilometers_per_hour": "73809.5179585547",
                "miles_per_hour": "45862.364089303"
            },
            "miss_distance": {
                "astronomical": "0.2103520836",
                "lunar": "81.8269605204",
                "kilometers": "31468223.656621932",
                "miles": "19553447.4748173816"
            },
            "orbiting_body": "Earth"
        }
    ],
    "orbital_data": {
        "orbit_id": "1",
        "orbit_determination_date": "2019-01-29 07:39:53",
        "first_observation_date": "2019-01-13",
        "last_observation_date": "2019-01-14",
        "data_arc_in_days": 1,
        "observations_used": 7,
        "orbit_uncertainty": "9",
        "minimum_orbit_intersection": ".0132227",
        "jupiter_tisserand_invariant": "5.327",
        "epoch_osculation": "2458497.5",
        "eccentricity": ".4456129885629196",
        "semi_major_axis": "1.159723027200513",
        "inclination": "6.350210044148263",
        "ascending_node_longitude": "296.4020771047487",
        "orbital_period": "456.1732846247994",
        "perihelion_distance": ".6429353831444563",
        "perihelion_argument": "284.3469887864139",
        "aphelion_distance": "1.67651067125657",
        "perihelion_time": "2458566.041893747523",
        "mean_anomaly": "305.908533926086",
        "mean_motion": ".7891737901663805",
        "equinox": "J2000",
        "orbit_class": {
            "orbit_class_type": "APO",
            "orbit_class_description": "Near-Earth asteroid orbits which cross the Earth’s orbit similar to that of 1862 Apollo",
            "orbit_class_range": "a (semi-major axis) > 1.0 AU; q (perihelion) < 1.017 AU"
        }
    },
    "is_sentry_object": false
}